FENGYUN 1C DEB          
1 32143U 99025CSM 17345.34387891  .00000021  00000-0  31200-4 0  9994
2 32143  98.6812  29.4467 0105714 239.2571 119.8158 14.15947724545470
